     2.100          NAVIGATION                              RINEX VERSION / TYPE
fic2rin                                 05/12/2009 01:46:52 PGM / RUN BY / DATE
                                                            END OF HEADER
14 09  5 11  2  0  0.0 -.112576875836D-03  .591171556152D-11  .000000000000D+00
     .210000000000D+02 -.339687500000D+02  .413981529707D-08  .115903456672D+01
    -.184215605259D-05  .439399341121D-02  .387430191040D-06  .515360236359D+04
     .936000000000D+05 -.102445483208D-06  .198811969033D+01  .521540641785D-07
     .988235649376D+00  .381750000000D+03 -.214397883182D+01 -.825855828782D-08
     .714315468392D-11  .100000000000D+01  .153100000000D+04  .000000000000D+00
     .240000000000D+01  .000000000000D+00 -.931322574615D-08  .210000000000D+02
     .864060000000D+05  .400000000000D+01
15 09  5 11  2  0  0.0 -.290365889668D-03 -.386535248253D-11  .000000000000D+00
     .650000000000D+02 -.245312500000D+02  .478698511143D-08  .135362751014D+01
    -.127591192722D-05  .142725021578D-02  .344589352608D-06  .515361329460D+04
     .936000000000D+05  .447034835815D-07  .193613943436D+01 -.111758708954D-07
     .956259478583D+00  .371062500000D+03 -.476426280907D+00 -.843106547343D-08
     .185722021782D-10  .100000000000D+01  .153100000000D+04  .000000000000D+00
     .240000000000D+01  .000000000000D+00 -.977888703346D-08  .650000000000D+02
     .864060000000D+05  .400000000000D+01
16 09  5 11  2  0  0.0  .521214678884D-04 -.329691829393D-11  .000000000000D+00
     .800000000000D+02 -.104375000000D+02  .445554273410D-08  .284840098023D+01
    -.402331352234D-06  .533408683259D-02  .915117561817D-05  .515354177284D+04
     .936000000000D+05 -.104308128357D-06 -.221699261087D+01  .145286321640D-06
     .968145006257D+00  .208781250000D+03 -.371648060656D+00 -.769746348739D-08
     .573595321119D-09  .100000000000D+01  .153100000000D+04  .000000000000D+00
     .240000000000D+01  .000000000000D+00 -.977888703346D-08  .800000000000D+02
     .864060000000D+05  .400000000000D+01
17 09  5 11  2  0  0.0  .583757646382D-04  .181898940355D-11  .000000000000D+00
     .350000000000D+02 -.809375000000D+01  .493270546698D-08  .174508611338D+01
    -.383704900742D-06  .447658193298D-02  .547245144844D-05  .515366833305D+04
     .936000000000D+05 -.875443220139D-07 -.117437185252D+01  .894069671631D-07
     .959321923494D+00  .276750000000D+03 -.265247000657D+01 -.812998150351D-08
    -.274654297597D-09  .100000000000D+01  .153100000000D+04  .000000000000D+00
     .240000000000D+01  .000000000000D+00 -.102445483208D-07  .350000000000D+02
     .864060000000D+05  .400000000000D+01
18 09  5 11  2  0  0.0 -.580088235438D-04  .329691829393D-11  .000000000000D+00
     .620000000000D+02  .142843750000D+03  .448982987658D-08  .302371770312D+01
     .733882188797D-05  .102887710091D-01  .580400228500D-05  .515360239220D+04
     .936000000000D+05  .409781932831D-07  .932468327129D+00 -.949949026108D-07
     .942671253241D+00  .259656250000D+03 -.242457825348D+01 -.798140388608D-08
     .318941856637D-09  .100000000000D+01  .153100000000D+04  .000000000000D+00
     .240000000000D+01  .000000000000D+00 -.107102096081D-07  .620000000000D+02
     .864060000000D+05  .400000000000D+01
19 09  5 11  2  0  0.0  .260365195572D-04 -.102318153949D-11  .000000000000D+00
     .260000000000D+02 -.126250000000D+02  .499949396328D-08  .111989219077D+01
    -.618398189545D-06  .554789695889D-02  .495091080666D-05  .515359132004D+04
     .936000000000D+05  .968575477600D-07 -.111824536195D+01  .335276126862D-07
     .957073118508D+00  .275000000000D+03 -.367194848785D+00 -.813105297671D-08
    -.374301305437D-09  .100000000000D+01  .153100000000D+04  .000000000000D+00
     .240000000000D+01  .000000000000D+00 -.144354999065D-07  .260000000000D+02
     .864060000000D+05  .400000000000D+01
20 09  5 11  2  0  0.0  .829794444144D-04 -.102318153949D-11  .000000000000D+00
     .380000000000D+02  .138937500000D+03  .452340270359D-08 -.310893973982D+01
     .721029937267D-05  .400442560203D-02  .657886266708D-05  .515362295532D+04
     .936000000000D+05 -.335276126862D-07  .878631960194D+00  .186264514923D-07
     .942352677960D+00  .242218750000D+03  .135467449721D+01 -.804319217410D-08
     .218580533328D-09  .100000000000D+01  .153100000000D+04  .000000000000D+00
     .240000000000D+01  .000000000000D+00 -.651925802231D-08  .380000000000D+02
     .864060000000D+05  .400000000000D+01
21 09  5 11  2  0  0.0  .146618112922D-04 -.204636307899D-11  .000000000000D+00
     .950000000000D+02  .297812500000D+02  .470341020163D-08 -.196721625285D+01
     .129826366901D-05  .151898035547D-01  .990740954876D-05  .515361920357D+04
     .936000000000D+05  .763684511185D-07 -.125538508268D+00 -.195577740669D-06
     .934563926556D+00  .174218750000D+03 -.260896824593D+01 -.777389524251D-08
    -.356800576462D-09  .100000000000D+01  .153100000000D+04  .000000000000D+00
     .240000000000D+01  .000000000000D+00 -.121071934700D-07  .950000000000D+02
     .864060000000D+05  .400000000000D+01
22 09  5 11  2  0  0.0  .199903734028D-03 -.795807864051D-12  .000000000000D+00
     .210000000000D+02  .141718750000D+03  .470412451710D-08  .198226720171D+01
     .740028917789D-05  .494170561433D-02  .549666583538D-05  .515366626358D+04
     .936000000000D+05  .484287738800D-07  .938190207891D+00 -.154599547386D-06
     .940329424221D+00  .262250000000D+03 -.187262819622D+01 -.821712799065D-08
     .309298597814D-09  .100000000000D+01  .153100000000D+04  .000000000000D+00
     .240000000000D+01  .000000000000D+00 -.176951289177D-07  .210000000000D+02
     .864060000000D+05  .400000000000D+01
23 09  5 11  2  0  0.0  .389945227653D-03  .113686837722D-12  .000000000000D+00
     .500000000000D+02 -.207500000000D+02  .449661587353D-08  .580736869153D+00
    -.106915831566D-05  .604229595046D-02  .339001417160D-06  .515361402512D+04
     .936000000000D+05  .894069671631D-07  .195588206097D+01  .260770320892D-07
     .970225486426D+00  .377656250000D+03  .287724256669D+01 -.839784980415D-08
     .564309220030D-10  .100000000000D+01  .153100000000D+04  .000000000000D+00
     .240000000000D+01  .000000000000D+00 -.200234353542D-07  .500000000000D+02
     .864060000000D+05  .400000000000D+01
24 09  5 11  2  0  0.0  .187921803445D-03  .295585778076D-11  .000000000000D+00
     .950000000000D+02  .385312500000D+02  .430589364347D-08  .295267207261D+01
     .193715095520D-05  .673989695497D-02  .105146318674D-04  .515368042374D+04
     .936000000000D+05  .279396772385D-07 -.937088150740D-01  .223517417908D-07
     .951213963365D+00  .174500000000D+03 -.647246745568D+00 -.762210320548D-08
    -.582524264474D-09  .100000000000D+01  .153100000000D+04  .000000000000D+00
     .240000000000D+01  .000000000000D+00 -.139698386192D-08  .950000000000D+02
     .864060000000D+05  .400000000000D+01
26 09  5 11  2  0  0.0  .604363158345D-04  .136424205266D-11  .000000000000D+00
     .750000000000D+02 -.380000000000D+02  .412052877942D-08 -.570760326687D+00
    -.149756669998D-05  .204341828357D-01  .163167715073D-05  .515487652397D+04
     .936000000000D+05 -.186264514923D-07  .200518692943D+01  .262632966042D-06
     .992570261015D+00  .366187500000D+03  .100383342823D+01 -.835749098019D-08
     .425017703693D-10  .100000000000D+01  .153100000000D+04  .000000000000D+00
     .240000000000D+01  .000000000000D+00 -.651925802231D-08  .750000000000D+02
     .864060000000D+05  .400000000000D+01
28 09  5 11  2  0  0.0 -.246907584369D-04 -.341060513165D-12  .000000000000D+00
     .119000000000D+03 -.728125000000D+01  .438446834499D-08  .224889325267D+01
    -.614672899246D-06  .148764930200D-01  .873021781445D-05  .515364468193D+04
     .936000000000D+05  .428408384323D-07 -.220879242107D+01 -.327825546265D-06
     .966333739588D+00  .213406250000D+03 -.202705547152D+01 -.757174396496D-08
     .481448625696D-09  .100000000000D+01  .153100000000D+04  .000000000000D+00
     .485000000000D+01  .000000000000D+00 -.107102096081D-07  .119000000000D+03
     .864060000000D+05  .400000000000D+01
29 09  5 11  2  0  0.0  .188089907169D-04  .386535248253D-11  .000000000000D+00
     .740000000000D+02 -.862500000000D+01  .486163107788D-08 -.195294651250D+01
    -.571832060814D-06  .342115573585D-02  .530108809471D-05  .515367664719D+04
     .936000000000D+05 -.186264514923D-08 -.116616876468D+01  .102445483208D-06
     .959545240865D+00  .275156250000D+03 -.132832390035D+01 -.802033407911D-08
    -.311084386485D-09  .100000000000D+01  .153100000000D+04  .000000000000D+00
     .240000000000D+01  .000000000000D+00 -.884756445885D-08  .740000000000D+02
     .864060000000D+05  .400000000000D+01
31 09  5 11  2  0  0.0 -.599157065153D-04 -.909494701773D-12  .000000000000D+00
     .700000000000D+02 -.130531250000D+03  .419624621907D-08 -.116226888110D+01
    -.681914389133D-05  .708015065175D-02  .881031155586D-05  .515371300125D+04
     .936000000000D+05 -.145286321640D-06  .299561077656D+01 -.391155481339D-07
     .972917423927D+00  .220593750000D+03 -.114436210696D+01 -.790890086604D-08
     .128576784311D-10  .100000000000D+01  .153100000000D+04  .000000000000D+00
     .340000000000D+01  .000000000000D+00 -.130385160446D-07  .700000000000D+02
     .864060000000D+05  .400000000000D+01
32 09  5 11  2  0  0.0  .263208523393D-03 -.522959453519D-11  .000000000000D+00
     .118000000000D+03  .125625000000D+03  .423231915022D-08 -.243778189083D+00
     .653788447380D-05  .133411611896D-01  .589340925217D-05  .515357935715D+04
     .936000000000D+05 -.275671482086D-06  .987863535681D+00 -.163912773132D-06
     .964262900049D+00  .270656250000D+03 -.116838487199D+01 -.819962726167D-08
     .296798077117D-09  .100000000000D+01  .153100000000D+04  .000000000000D+00
     .240000000000D+01  .000000000000D+00 -.325962901115D-08  .118000000000D+03
     .864060000000D+05  .400000000000D+01
